{
  "type": "FeatureCollection",
  "properties": {
    "incident": "MSC ELSA 3",
    "issued": "7 Jun, 02:00 IST",
    "run_id": 2,
    "source": "DriftSight prototype \u2014 simulated imagery and ocean fields"
  },
  "features": [
    {
      "type": "Feature",
      "geometry": {
        "type": "Point",
        "coordinates": [
          79.3954,
          9.0383
        ]
      },
      "properties": {
        "kind": "priority_zone",
        "name": "Patch A (at sea)",
        "level": "HIGH",
        "confidence": 0.99,
        "zone_kind": "sea",
        "action": "Boat verification, then boom / skimmer recovery if confirmed.",
        "nearest_harbour": "Pamban"
      }
    },
    {
      "type": "Feature",
      "geometry": {
        "type": "Point",
        "coordinates": [
          78.7973,
          8.6965
        ]
      },
      "properties": {
        "kind": "priority_zone",
        "name": "Patch C (at sea)",
        "level": "HIGH",
        "confidence": 0.95,
        "zone_kind": "sea",
        "action": "Boat verification, then boom / skimmer recovery if confirmed.",
        "nearest_harbour": "Thoothukudi"
      }
    }
  ]
}