{
  "type": "FeatureCollection",
  "properties": {
    "incident": "MSC ELSA 3",
    "issued": "1 Jun, 18:00 IST",
    "run_id": 2,
    "source": "DriftSight prototype \u2014 simulated imagery and ocean fields"
  },
  "features": [
    {
      "type": "Feature",
      "geometry": {
        "type": "Point",
        "coordinates": [
          78.0972,
          8.3008
        ]
      },
      "properties": {
        "kind": "priority_zone",
        "name": "Patch A (at sea)",
        "level": "HIGH",
        "confidence": 0.99,
        "zone_kind": "sea",
        "action": "Boat verification, then boom / skimmer recovery if confirmed.",
        "nearest_harbour": "Thoothukudi"
      }
    },
    {
      "type": "Feature",
      "geometry": {
        "type": "Point",
        "coordinates": [
          77.5487,
          7.85
        ]
      },
      "properties": {
        "kind": "priority_zone",
        "name": "Patch C (at sea)",
        "level": "HIGH",
        "confidence": 0.99,
        "zone_kind": "sea",
        "action": "Boat verification, then boom / skimmer recovery if confirmed.",
        "nearest_harbour": "Chinnamuttom"
      }
    },
    {
      "type": "Feature",
      "geometry": {
        "type": "Point",
        "coordinates": [
          78.0249,
          7.8951
        ]
      },
      "properties": {
        "kind": "priority_zone",
        "name": "Patch B (at sea)",
        "level": "LOW",
        "confidence": 0.45,
        "zone_kind": "sea",
        "action": "Boat verification, then boom / skimmer recovery if confirmed.",
        "nearest_harbour": "Chinnamuttom"
      }
    }
  ]
}