{
  "type": "FeatureCollection",
  "properties": {
    "incident": "MSC ELSA 3",
    "issued": "30 May, 13:00 IST",
    "run_id": 2,
    "source": "DriftSight prototype \u2014 simulated imagery and ocean fields"
  },
  "features": [
    {
      "type": "Feature",
      "geometry": {
        "type": "Point",
        "coordinates": [
          77.2053,
          8.2107
        ]
      },
      "properties": {
        "kind": "priority_zone",
        "name": "Kanyakumari coast",
        "level": "HIGH",
        "confidence": 0.95,
        "zone_kind": "coast",
        "action": "Beach survey and manual pellet collection; alert fishing villages.",
        "nearest_harbour": "Colachel"
      }
    },
    {
      "type": "Feature",
      "geometry": {
        "type": "Point",
        "coordinates": [
          77.3553,
          8.0444
        ]
      },
      "properties": {
        "kind": "priority_zone",
        "name": "Patch A (at sea)",
        "level": "HIGH",
        "confidence": 0.92,
        "zone_kind": "sea",
        "action": "Boat verification, then boom / skimmer recovery if confirmed.",
        "nearest_harbour": "Colachel"
      }
    },
    {
      "type": "Feature",
      "geometry": {
        "type": "Point",
        "coordinates": [
          76.9149,
          8.1395
        ]
      },
      "properties": {
        "kind": "priority_zone",
        "name": "Patch C (at sea)",
        "level": "MEDIUM",
        "confidence": 0.94,
        "zone_kind": "sea",
        "action": "Boat verification, then boom / skimmer recovery if confirmed.",
        "nearest_harbour": "Vizhinjam"
      }
    },
    {
      "type": "Feature",
      "geometry": {
        "type": "Point",
        "coordinates": [
          76.8991,
          8.4944
        ]
      },
      "properties": {
        "kind": "priority_zone",
        "name": "Thiruvananthapuram coast",
        "level": "LOW",
        "confidence": 0.62,
        "zone_kind": "coast",
        "action": "Beach survey and manual pellet collection; alert fishing villages.",
        "nearest_harbour": "Vizhinjam"
      }
    },
    {
      "type": "Feature",
      "geometry": {
        "type": "Point",
        "coordinates": [
          77.378,
          7.8099
        ]
      },
      "properties": {
        "kind": "priority_zone",
        "name": "Patch B (at sea)",
        "level": "LOW",
        "confidence": 0.76,
        "zone_kind": "sea",
        "action": "Boat verification, then boom / skimmer recovery if confirmed.",
        "nearest_harbour": "Chinnamuttom"
      }
    },
    {
      "type": "Feature",
      "geometry": {
        "type": "Point",
        "coordinates": [
          77.073,
          7.902
        ]
      },
      "properties": {
        "kind": "priority_zone",
        "name": "Patch D (at sea)",
        "level": "LOW",
        "confidence": 0.55,
        "zone_kind": "sea",
        "action": "Boat verification, then boom / skimmer recovery if confirmed.",
        "nearest_harbour": "Colachel"
      }
    }
  ]
}